{
  "type": "FeatureCollection",
  "features": [
    {
      "type": "Feature",
      "geometry": {
        "type": "Polygon",
        "coordinates": [
          [
            [
              -89.5,
              43.0
            ],
            [
              -89.25,
              43.0
            ],
            [
              -89.25,
              43.25
            ],
            [
              -89.5,
              43.25
            ],
            [
              -89.5,
              43.0
            ]
          ]
        ]
      },
      "properties": {
        "label": "QS-001",
        "title": "Quickstart Demo Sheet 1",
        "datePub": "1950",
        "publisher": "OpenIndexMaps Demo",
        "scale": "1:24000",
        "west": -89.5,
        "east": -89.25,
        "south": 43.0,
        "north": 43.25,
        "available": true
      }
    },
    {
      "type": "Feature",
      "geometry": {
        "type": "Polygon",
        "coordinates": [
          [
            [
              -89.25,
              43.0
            ],
            [
              -89.0,
              43.0
            ],
            [
              -89.0,
              43.25
            ],
            [
              -89.25,
              43.25
            ],
            [
              -89.25,
              43.0
            ]
          ]
        ]
      },
      "properties": {
        "label": "QS-002",
        "title": "Quickstart Demo Sheet 2",
        "datePub": "1962",
        "publisher": "OpenIndexMaps Demo",
        "scale": "1:24000",
        "west": -89.25,
        "east": -89.0,
        "south": 43.0,
        "north": 43.25,
        "available": false
      }
    }
  ]
}